[{"OBJECT_NAME":"STARLINK-36919","OBJECT_ID":"2026-041P","EPOCH":"2026-03-10T02:00:03.000384","MEAN_MOTION":15.92229142,"ECCENTRICITY":8.3e-5,"INCLINATION":53.1594,"RA_OF_ASC_NODE":60.2012,"ARG_OF_PERICENTER":93.8128,"MEAN_ANOMALY":134.3425,"EPHEMERIS_TYPE":0,"CLASSIFICATION_TYPE":"U","NORAD_CAT_ID":68053,"ELEMENT_SET_NO":999,"REV_AT_EPOCH":243,"BSTAR":-0.0048114,"MEAN_MOTION_DOT":-0.01646407,"MEAN_MOTION_DDOT":0.00076072},{"OBJECT_NAME":"STARLINK-36924","OBJECT_ID":"2026-041Q","EPOCH":"2026-03-10T02:00:03.000384","MEAN_MOTION":15.92510374,"ECCENTRICITY":8.9e-5,"INCLINATION":53.1592,"RA_OF_ASC_NODE":60.191,"ARG_OF_PERICENTER":92.3532,"MEAN_ANOMALY":140.875,"EPHEMERIS_TYPE":0,"CLASSIFICATION_TYPE":"U","NORAD_CAT_ID":68054,"ELEMENT_SET_NO":999,"REV_AT_EPOCH":243,"BSTAR":-0.0048046,"MEAN_MOTION_DOT":-0.01668056,"MEAN_MOTION_DDOT":0.00078136},{"OBJECT_NAME":"STARLINK-35998","OBJECT_ID":"2026-041R","EPOCH":"2026-03-10T02:00:03.000384","MEAN_MOTION":15.92377247,"ECCENTRICITY":8.83e-5,"INCLINATION":53.1595,"RA_OF_ASC_NODE":60.1957,"ARG_OF_PERICENTER":97.4087,"MEAN_ANOMALY":133.2014,"EPHEMERIS_TYPE":0,"CLASSIFICATION_TYPE":"U","NORAD_CAT_ID":68055,"ELEMENT_SET_NO":999,"REV_AT_EPOCH":240,"BSTAR":-0.0048245,"MEAN_MOTION_DOT":-0.01663433,"MEAN_MOTION_DDOT":0.00077637},{"OBJECT_NAME":"STARLINK-36845","OBJECT_ID":"2026-041S","EPOCH":"2026-03-10T02:00:03.000384","MEAN_MOTION":15.9262433,"ECCENTRICITY":8.19e-5,"INCLINATION":53.1591,"RA_OF_ASC_NODE":60.1855,"ARG_OF_PERICENTER":84.6472,"MEAN_ANOMALY":151.1398,"EPHEMERIS_TYPE":0,"CLASSIFICATION_TYPE":"U","NORAD_CAT_ID":68056,"ELEMENT_SET_NO":999,"REV_AT_EPOCH":243,"BSTAR":-0.0046762,"MEAN_MOTION_DOT":-0.0163362,"MEAN_MOTION_DDOT":0.00075282},{"OBJECT_NAME":"STARLINK-36954","OBJECT_ID":"2026-041T","EPOCH":"2026-03-10T02:00:03.000384","MEAN_MOTION":15.92761157,"ECCENTRICITY":7.65e-5,"INCLINATION":53.1593,"RA_OF_ASC_NODE":60.1799,"ARG_OF_PERICENTER":93.9564,"MEAN_ANOMALY":144.429,"EPHEMERIS_TYPE":0,"CLASSIFICATION_TYPE":"U","NORAD_CAT_ID":68057,"ELEMENT_SET_NO":999,"REV_AT_EPOCH":243,"BSTAR":-0.0046785,"MEAN_MOTION_DOT":-0.01645988,"MEAN_MOTION_DDOT":0.00076435},{"OBJECT_NAME":"STARLINK-36899","OBJECT_ID":"2026-041U","EPOCH":"2026-03-10T02:00:03.000384","MEAN_MOTION":15.92889976,"ECCENTRICITY":6.77e-5,"INCLINATION":53.1593,"RA_OF_ASC_NODE":60.1754,"ARG_OF_PERICENTER":94.3305,"MEAN_ANOMALY":146.3573,"EPHEMERIS_TYPE":0,"CLASSIFICATION_TYPE":"U","NORAD_CAT_ID":68058,"ELEMENT_SET_NO":999,"REV_AT_EPOCH":243,"BSTAR":-0.0046161,"MEAN_MOTION_DOT":-0.01635139,"MEAN_MOTION_DDOT":0.00075608},{"OBJECT_NAME":"STARLINK-36917","OBJECT_ID":"2026-041V","EPOCH":"2026-03-10T02:00:03.000384","MEAN_MOTION":15.93021592,"ECCENTRICITY":8.0e-5,"INCLINATION":53.1592,"RA_OF_ASC_NODE":60.1697,"ARG_OF_PERICENTER":90.2308,"MEAN_ANOMALY":153.3229,"EPHEMERIS_TYPE":0,"CLASSIFICATION_TYPE":"U","NORAD_CAT_ID":68059,"ELEMENT_SET_NO":999,"REV_AT_EPOCH":244,"BSTAR":-0.0046208,"MEAN_MOTION_DOT":-0.01647997,"MEAN_MOTION_DDOT":0.00076805},{"OBJECT_NAME":"STARLINK-36959","OBJECT_ID":"2026-041W","EPOCH":"2026-03-10T02:00:03.000384","MEAN_MOTION":15.93157594,"ECCENTRICITY":6.46e-5,"INCLINATION":53.1592,"RA_OF_ASC_NODE":60.164,"ARG_OF_PERICENTER":91.3573,"MEAN_ANOMALY":154.5519,"EPHEMERIS_TYPE":0,"CLASSIFICATION_TYPE":"U","NORAD_CAT_ID":68060,"ELEMENT_SET_NO":999,"REV_AT_EPOCH":243,"BSTAR":-0.0046042,"MEAN_MOTION_DOT":-0.01653756,"MEAN_MOTION_DDOT":0.00077403},{"OBJECT_NAME":"STARLINK-36915","OBJECT_ID":"2026-041X","EPOCH":"2026-03-10T02:00:03.000384","MEAN_MOTION":15.93293317,"ECCENTRICITY":7.1e-5,"INCLINATION":53.1593,"RA_OF_ASC_NODE":60.1588,"ARG_OF_PERICENTER":88.5025,"MEAN_ANOMALY":159.9883,"EPHEMERIS_TYPE":0,"CLASSIFICATION_TYPE":"U","NORAD_CAT_ID":68061,"ELEMENT_SET_NO":999,"REV_AT_EPOCH":244,"BSTAR":-0.0046129,"MEAN_MOTION_DOT":-0.01668559,"MEAN_MOTION_DDOT":0.00078789},{"OBJECT_NAME":"STARLINK-36952","OBJECT_ID":"2026-041Y","EPOCH":"2026-03-10T02:00:03.000384","MEAN_MOTION":15.93408296,"ECCENTRICITY":7.38e-5,"INCLINATION":53.1594,"RA_OF_ASC_NODE":60.1537,"ARG_OF_PERICENTER":95.49,"MEAN_ANOMALY":155.7416,"EPHEMERIS_TYPE":0,"CLASSIFICATION_TYPE":"U","NORAD_CAT_ID":68062,"ELEMENT_SET_NO":999,"REV_AT_EPOCH":244,"BSTAR":-0.0045235,"MEAN_MOTION_DOT":-0.01646444,"MEAN_MOTION_DDOT":0.00076967},{"OBJECT_NAME":"STARLINK-37000","OBJECT_ID":"2026-041Z","EPOCH":"2026-03-10T02:00:03.000384","MEAN_MOTION":15.93541892,"ECCENTRICITY":7.7e-5,"INCLINATION":53.1594,"RA_OF_ASC_NODE":60.1473,"ARG_OF_PERICENTER":89.2765,"MEAN_ANOMALY":164.7282,"EPHEMERIS_TYPE":0,"CLASSIFICATION_TYPE":"U","NORAD_CAT_ID":68063,"ELEMENT_SET_NO":999,"REV_AT_EPOCH":244,"BSTAR":-0.0045404,"MEAN_MOTION_DOT":-0.01664063,"MEAN_MOTION_DDOT":0.00078593},{"OBJECT_NAME":"STARLINK-36996","OBJECT_ID":"2026-041AA","EPOCH":"2026-03-10T02:00:03.000384","MEAN_MOTION":15.93671347,"ECCENTRICITY":6.92e-5,"INCLINATION":53.1593,"RA_OF_ASC_NODE":60.1419,"ARG_OF_PERICENTER":85.6957,"MEAN_ANOMALY":171.1167,"EPHEMERIS_TYPE":0,"CLASSIFICATION_TYPE":"U","NORAD_CAT_ID":68064,"ELEMENT_SET_NO":999,"REV_AT_EPOCH":244,"BSTAR":-0.0045347,"MEAN_MOTION_DOT":-0.01673241,"MEAN_MOTION_DDOT":0.00079496},{"OBJECT_NAME":"STARLINK-36836","OBJECT_ID":"2026-041AB","EPOCH":"2026-03-10T02:00:03.000384","MEAN_MOTION":15.93918257,"ECCENTRICITY":6.26e-5,"INCLINATION":53.1593,"RA_OF_ASC_NODE":60.1308,"ARG_OF_PERICENTER":89.3196,"MEAN_ANOMALY":172.6548,"EPHEMERIS_TYPE":0,"CLASSIFICATION_TYPE":"U","NORAD_CAT_ID":68065,"ELEMENT_SET_NO":999,"REV_AT_EPOCH":244,"BSTAR":-0.0044433,"MEAN_MOTION_DOT":-0.01661245,"MEAN_MOTION_DDOT":0.00078645},{"OBJECT_NAME":"STARLINK-36976","OBJECT_ID":"2026-041AC","EPOCH":"2026-03-10T02:00:03.000384","MEAN_MOTION":15.94042609,"ECCENTRICITY":6.46e-5,"INCLINATION":53.1591,"RA_OF_ASC_NODE":60.125,"ARG_OF_PERICENTER":86.826,"MEAN_ANOMALY":177.8633,"EPHEMERIS_TYPE":0,"CLASSIFICATION_TYPE":"U","NORAD_CAT_ID":68066,"ELEMENT_SET_NO":999,"REV_AT_EPOCH":244,"BSTAR":-0.0044103,"MEAN_MOTION_DOT":-0.01659871,"MEAN_MOTION_DDOT":0.00078623},{"OBJECT_NAME":"STARLINK-36929","OBJECT_ID":"2026-041AD","EPOCH":"2026-03-10T02:00:03.000384","MEAN_MOTION":15.93788044,"ECCENTRICITY":6.94e-5,"INCLINATION":53.1591,"RA_OF_ASC_NODE":60.1359,"ARG_OF_PERICENTER":99.5403,"MEAN_ANOMALY":160.0314,"EPHEMERIS_TYPE":0,"CLASSIFICATION_TYPE":"U","NORAD_CAT_ID":68067,"ELEMENT_SET_NO":999,"REV_AT_EPOCH":244,"BSTAR":-0.0044586,"MEAN_MOTION_DOT":-0.01655586,"MEAN_MOTION_DDOT":0.00078051},{"OBJECT_NAME":"STARLINK-36990","OBJECT_ID":"2026-041AE","EPOCH":"2026-03-10T02:00:03.000384","MEAN_MOTION":15.94161753,"ECCENTRICITY":7.01e-5,"INCLINATION":53.159,"RA_OF_ASC_NODE":60.119,"ARG_OF_PERICENTER":92.0336,"MEAN_ANOMALY":175.6023,"EPHEMERIS_TYPE":0,"CLASSIFICATION_TYPE":"U","NORAD_CAT_ID":68068,"ELEMENT_SET_NO":999,"REV_AT_EPOCH":244,"BSTAR":-0.0043643,"MEAN_MOTION_DOT":-0.01653095,"MEAN_MOTION_DDOT":0.00078128},{"OBJECT_NAME":"STARLINK-36766","OBJECT_ID":"2026-042A","EPOCH":"2026-03-09T18:00:02.000160","MEAN_MOTION":16.00806528,"ECCENTRICITY":8.661e-5,"INCLINATION":53.1607,"RA_OF_ASC_NODE":195.0209,"ARG_OF_PERICENTER":55.5778,"MEAN_ANOMALY":347.0577,"EPHEMERIS_TYPE":0,"CLASSIFICATION_TYPE":"U","NORAD_CAT_ID":68069,"ELEMENT_SET_NO":999,"REV_AT_EPOCH":205,"BSTAR":-0.0023023039,"MEAN_MOTION_DOT":-0.01264818,"MEAN_MOTION_DDOT":0.00051321235},{"OBJECT_NAME":"STARLINK-36823","OBJECT_ID":"2026-042B","EPOCH":"2026-03-09T18:00:02.000160","MEAN_MOTION":16.00932914,"ECCENTRICITY":8.845e-5,"INCLINATION":53.1603,"RA_OF_ASC_NODE":195.0182,"ARG_OF_PERICENTER":61.4573,"MEAN_ANOMALY":342.5386,"EPHEMERIS_TYPE":0,"CLASSIFICATION_TYPE":"U","NORAD_CAT_ID":68070,"ELEMENT_SET_NO":999,"REV_AT_EPOCH":205,"BSTAR":-0.0022906589,"MEAN_MOTION_DOT":-0.01267622,"MEAN_MOTION_DDOT":0.00051599902},{"OBJECT_NAME":"STARLINK-36970","OBJECT_ID":"2026-042C","EPOCH":"2026-03-09T18:00:02.000160","MEAN_MOTION":16.01169343,"ECCENTRICITY":9.102e-5,"INCLINATION":53.1608,"RA_OF_ASC_NODE":195.0127,"ARG_OF_PERICENTER":57.1343,"MEAN_ANOMALY":349.5048,"EPHEMERIS_TYPE":0,"CLASSIFICATION_TYPE":"U","NORAD_CAT_ID":68071,"ELEMENT_SET_NO":999,"REV_AT_EPOCH":206,"BSTAR":-0.0022481621,"MEAN_MOTION_DOT":-0.01261359,"MEAN_MOTION_DDOT":0.00051269178},{"OBJECT_NAME":"STARLINK-36972","OBJECT_ID":"2026-042D","EPOCH":"2026-03-09T18:00:02.000160","MEAN_MOTION":16.01034752,"ECCENTRICITY":8.795e-5,"INCLINATION":53.1607,"RA_OF_ASC_NODE":195.0158,"ARG_OF_PERICENTER":59.0981,"MEAN_ANOMALY":346.0575,"EPHEMERIS_TYPE":0,"CLASSIFICATION_TYPE":"U","NORAD_CAT_ID":68072,"ELEMENT_SET_NO":999,"REV_AT_EPOCH":206,"BSTAR":-0.0022694915,"MEAN_MOTION_DOT":-0.01263392,"MEAN_MOTION_DDOT":0.00051343903},{"OBJECT_NAME":"STARLINK-37074","OBJECT_ID":"2026-042E","EPOCH":"2026-03-09T18:00:02.000160","MEAN_MOTION":16.01296626,"ECCENTRICITY":8.452e-5,"INCLINATION":53.1608,"RA_OF_ASC_NODE":195.0101,"ARG_OF_PERICENTER":61.6239,"MEAN_ANOMALY":346.3676,"EPHEMERIS_TYPE":0,"CLASSIFICATION_TYPE":"U","NORAD_CAT_ID":68073,"ELEMENT_SET_NO":999,"REV_AT_EPOCH":206,"BSTAR":-0.002245172,"MEAN_MOTION_DOT":-0.0126893,"MEAN_MOTION_DDOT":0.00051903568},{"OBJECT_NAME":"STARLINK-37045","OBJECT_ID":"2026-042F","EPOCH":"2026-03-09T18:00:02.000160","MEAN_MOTION":16.01427901,"ECCENTRICITY":8.706e-5,"INCLINATION":53.1606,"RA_OF_ASC_NODE":195.0069,"ARG_OF_PERICENTER":57.0391,"MEAN_ANOMALY":352.4053,"EPHEMERIS_TYPE":0,"CLASSIFICATION_TYPE":"U","NORAD_CAT_ID":68074,"ELEMENT_SET_NO":999,"REV_AT_EPOCH":206,"BSTAR":-0.0022263654,"MEAN_MOTION_DOT":-0.01267971,"MEAN_MOTION_DDOT":0.00051907038},{"OBJECT_NAME":"STARLINK-37026","OBJECT_ID":"2026-042G","EPOCH":"2026-03-09T18:00:02.000160","MEAN_MOTION":16.01566189,"ECCENTRICITY":7.284e-5,"INCLINATION":53.1607,"RA_OF_ASC_NODE":195.0039,"ARG_OF_PERICENTER":62.6921,"MEAN_ANOMALY":348.2455,"EPHEMERIS_TYPE":0,"CLASSIFICATION_TYPE":"U","NORAD_CAT_ID":68075,"ELEMENT_SET_NO":999,"REV_AT_EPOCH":206,"BSTAR":-0.0022158337,"MEAN_MOTION_DOT":-0.01272121,"MEAN_MOTION_DDOT":0.00052296688}]
